COMMENT,ORIGINATOR,NORAD_CAT_ID,OBJECT_NAME,OBJECT_TYPE,CLASSIFICATION_TYPE,INTLDES,EPOCH,EPOCH_MICROSECONDS,MEAN_MOTION,ECCENTRICITY,INCLINATION,RA_OF_ASC_NODE,ARG_OF_PERICENTER,MEAN_ANOMALY,EPHEMERIS_TYPE,ELEMENT_SET_NO,REV_AT_EPOCH,BSTAR,MEAN_MOTION_DOT,MEAN_MOTION_DDOT,FILE,TLE_LINE0,TLE_LINE1,TLE_LINE2,OBJECT_ID,OBJECT_NUMBER,SEMIMAJOR_AXIS,PERIOD,APOGEE,PERIGEE,DECAYED
"GENERATED VIA SPACETRACK.ORG API","18 SPCS","55101","SPACEBEE-159","PAYLOAD","U","23001CW","2024-02-27 10:29:16","71648","15.36598682","0.0011805","97.4369","123.5375","181.0727","179.0494","0","999","6406","0.0014032","0.00050434","0","4200159","0 SPACEBEE-159","1 55101U 23001CW  24058.43699157  .00050434  00000-0  14032-2 0  9999","2 55101  97.4369 123.5375 0011805 181.0727 179.0494 15.36598682 64062","2023-001CW","55101","6834.313","93.713","464.246","448.110","0"
"GENERATED VIA SPACETRACK.ORG API","18 SPCS","55101","SPACEBEE-159","PAYLOAD","U","23001CW","2024-02-27 16:44:21","810624","15.36618974","0.0011824","97.4368","123.8009","180.154","179.9703","0","999","6410","0.0012498","0.00044909","0","4200457","0 SPACEBEE-159","1 55101U 23001CW  24058.69747466  .00044909  00000-0  12498-2 0  9998","2 55101  97.4368 123.8009 0011824 180.1540 179.9703 15.36618974 64106","2023-001CW","55101","6834.253","93.712","464.199","448.037","0"
"GENERATED VIA SPACETRACK.ORG API","18 SPCS","55101","SPACEBEE-159","PAYLOAD","U","23001CW","2024-02-28 03:40:46","76448","15.36655594","0.0011836","97.4365","124.2618","178.6046","181.5234","0","999","6417","0.0011756","0.00042274","0","4200750","0 SPACEBEE-159","1 55101U 23001CW  24059.15331107  .00042274  00000-0  11756-2 0  9990","2 55101  97.4365 124.2618 0011836 178.6046 181.5234 15.36655594 64174","2023-001CW","55101","6834.144","93.710","464.098","447.920","0"
"GENERATED VIA SPACETRACK.ORG API","18 SPCS","55101","SPACEBEE-159","PAYLOAD","U","23001CW","2024-02-28 11:29:37","107744","15.36681908","0.0011854","97.4365","124.5908","177.4345","182.6962","0","999","6422","0.0011657","0.00041951","0","4201083","0 SPACEBEE-159","1 55101U 23001CW  24059.47890171  .00041951  00000-0  11657-2 0  9997","2 55101  97.4365 124.5908 0011854 177.4345 182.6962 15.36681908 64222","2023-001CW","55101","6834.066","93.708","464.032","447.830","0"
"GENERATED VIA SPACETRACK.ORG API","18 SPCS","55101","SPACEBEE-159","PAYLOAD","U","23001CW","2024-02-28 17:44:41","606016","15.3670045","0.0011866","97.4364","124.8542","176.5855","183.5473","0","999","6426","0.0010614","0.00038195","0","4201365","0 SPACEBEE-159","1 55101U 23001CW  24059.73937044  .00038195  00000-0  10614-2 0  9995","2 55101  97.4364 124.8542 0011866 176.5855 183.5473 15.36700450 64262","2023-001CW","55101","6834.011","93.707","463.986","447.767","0"
"GENERATED VIA SPACETRACK.ORG API","18 SPCS","55101","SPACEBEE-159","PAYLOAD","U","23001CW","2024-02-29 03:07:17","811264","15.36730357","0.0011854","97.4362","125.2493","175.4487","184.6867","0","999","6432","0.0010662","0.00038406","0","4201930","0 SPACEBEE-159","1 55101U 23001CW  24060.13006726  .00038406  00000-0  10662-2 0  9993","2 55101  97.4362 125.2493 0011854 175.4487 184.6867 15.36730357 64321","2023-001CW","55101","6833.923","93.705","463.889","447.687","0"
"GENERATED VIA SPACETRACK.ORG API","18 SPCS","55101","SPACEBEE-159","PAYLOAD","U","23001CW","2024-02-29 03:07:17","811264","15.36730357","0.0011854","97.4362","125.2493","175.4487","184.6867","0","999","6432","0.0010662","0.00038406","0","4201938","0 SPACEBEE-159","1 55101U 23001CW  24060.13006726  .00038406  00000-0  10662-2 0  9993","2 55101  97.4362 125.2493 0011854 175.4487 184.6867 15.36730357 64321","2023-001CW","55101","6833.923","93.705","463.889","447.687","0"
"GENERATED VIA SPACETRACK.ORG API","18 SPCS","55101","SPACEBEE-159","PAYLOAD","U","23001CW","2024-02-29 17:11:10","905216","15.36774872","0.0011886","97.4362","125.8419","173.2954","186.8451","0","999","6441","0.0010498","0.00037866","0","4202276","0 SPACEBEE-159","1 55101U 23001CW  24060.71609844  .00037866  00000-0  10498-2 0  9993","2 55101  97.4362 125.8419 0011886 173.2954 186.8451 15.36774872 64418","2023-001CW","55101","6833.791","93.703","463.778","447.533","0"
"GENERATED VIA SPACETRACK.ORG API","18 SPCS","55101","SPACEBEE-159","PAYLOAD","U","23001CW","2024-03-01 04:07:31","160352","15.368116","0.0011886","97.436","126.3029","171.7622","188.3819","0","999","6448","0.0011054","0.00039933","0","4202525","0 SPACEBEE-159","1 55101U 23001CW  24061.17188843  .00039933  00000-0  11054-2 0  9991","2 55101  97.4360 126.3029 0011886 171.7622 188.3819 15.36811600 64487","2023-001CW","55101","6833.682","93.700","463.669","447.424","0"
"GENERATED VIA SPACETRACK.ORG API","18 SPCS","55101","SPACEBEE-159","PAYLOAD","U","23001CW","2024-03-01 04:07:31","160352","15.368116","0.0011886","97.436","126.3029","171.7622","188.3819","0","999","6448","0.0011054","0.00039933","0","4202819","0 SPACEBEE-159","1 55101U 23001CW  24061.17188843  .00039933  00000-0  11054-2 0  9991","2 55101  97.4360 126.3029 0011886 171.7622 188.3819 15.36811600 64487","2023-001CW","55101","6833.682","93.700","463.669","447.424","0"
"GENERATED VIA SPACETRACK.ORG API","18 SPCS","55101","SPACEBEE-159","PAYLOAD","U","23001CW","2024-03-01 16:37:35","960448","15.36857605","0.0011913","97.436","126.8298","169.9775","190.1709","0","999","6456","0.0011992","0.00043413","0","4203428","0 SPACEBEE-159","1 55101U 23001CW  24061.69277732  .00043413  00000-0  11992-2 0  9993","2 55101  97.4360 126.8298 0011913 169.9775 190.1709 15.36857605 64562","2023-001CW","55101","6833.545","93.698","463.551","447.270","0"
"GENERATED VIA SPACETRACK.ORG API","18 SPCS","55101","SPACEBEE-159","PAYLOAD","U","23001CW","2024-03-02 03:33:54","91008","15.36895777","0.0011897","97.4359","127.2908","168.4882","191.6637","0","999","6463","0.00119","0.0004313","0","4204354","0 SPACEBEE-159","1 55101U 23001CW  24062.14854272  .00043130  00000-0  11900-2 0  9999","2 55101  97.4359 127.2908 0011897 168.4882 191.6637 15.36895777 64633","2023-001CW","55101","6833.432","93.695","463.427","447.168","0"
"GENERATED VIA SPACETRACK.ORG API","18 SPCS","55101","SPACEBEE-159","PAYLOAD","U","23001CW","2024-03-02 17:37:41","477376","15.36950904","0.0011866","97.4359","127.884","166.3768","193.7799","0","999","6472","0.0012069","0.00043825","0","4204894","0 SPACEBEE-159","1 55101U 23001CW  24062.73450784  .00043825  00000-0  12069-2 0  9992","2 55101  97.4359 127.8840 0011866 166.3768 193.7799 15.36950904 64726","2023-001CW","55101","6833.269","93.692","463.242","447.026","0"
"GENERATED VIA SPACETRACK.ORG API","18 SPCS","55101","SPACEBEE-159","PAYLOAD","U","23001CW","2024-03-02 17:37:41","477376","15.36950904","0.0011866","97.4359","127.884","166.3768","193.7799","0","999","6472","0.0012069","0.00043825","0","4204905","0 SPACEBEE-159","1 55101U 23001CW  24062.73450784  .00043825  00000-0  12069-2 0  9992","2 55101  97.4359 127.8840 0011866 166.3768 193.7799 15.36950904 64726","2023-001CW","55101","6833.269","93.692","463.242","447.026","0"
"GENERATED VIA SPACETRACK.ORG API","18 SPCS","55101","SPACEBEE-159","PAYLOAD","U","23001CW","2024-03-03 10:48:57","15360","15.37018318","0.0011967","97.4361","128.6083","164.1105","196.0517","0","999","6483","0.001313","0.00047815","0","4206173","0 SPACEBEE-159","1 55101U 23001CW  24063.45065990  .00047815  00000-0  13130-2 0  9996","2 55101  97.4361 128.6083 0011967 164.1105 196.0517 15.37018318 64831","2023-001CW","55101","6833.069","93.688","463.111","446.757","0"
"GENERATED VIA SPACETRACK.ORG API","18 SPCS","55101","SPACEBEE-159","PAYLOAD","U","23001CW","2024-03-03 17:03:56","592288","15.37040088","0.0011963","97.4362","128.8719","162.8625","197.3025","0","999","6487","0.0012325","0.00044893","0","4206364","0 SPACEBEE-159","1 55101U 23001CW  24063.71107167  .00044893  00000-0  12325-2 0  9996","2 55101  97.4362 128.8719 0011963 162.8625 197.3025 15.37040088 64879","2023-001CW","55101","6833.005","93.687","463.044","446.695","0"
"GENERATED VIA SPACETRACK.ORG API","18 SPCS","55101","SPACEBEE-159","PAYLOAD","U","23001CW","2024-03-04 04:00:09","318528","15.37137855","0.0011969","97.4361","129.3329","161.464","198.7043","0","999","6494","0.0026571","0.00097849","0","4207192","0 SPACEBEE-159","1 55101U 23001CW  24064.16677452  .00097849  00000-0  26571-2 0  9992","2 55101  97.4361 129.3329 0011969 161.4640 198.7043 15.37137855 64941","2023-001CW","55101","6832.715","93.681","462.758","446.402","0"
"GENERATED VIA SPACETRACK.ORG API","18 SPCS","55101","SPACEBEE-159","PAYLOAD","U","23001CW","2024-03-04 10:15:07","632288","15.37140505","0.0012034","97.436","129.5967","160.6292","199.5412","0","999","6498","0.0014979","0.00054826","0","4207947","0 SPACEBEE-159","1 55101U 23001CW  24064.42717167  .00054826  00000-0  14979-2 0  9996","2 55101  97.4360 129.5967 0012034 160.6292 199.5412 15.37140505 64987","2023-001CW","55101","6832.707","93.680","462.794","446.350","0"
"GENERATED VIA SPACETRACK.ORG API","18 SPCS","55101","SPACEBEE-159","PAYLOAD","U","23001CW","2024-03-04 10:15:07","632288","15.37140505","0.0012034","97.436","129.5967","160.6292","199.5412","0","999","6498","0.0014979","0.00054826","0","4208022","0 SPACEBEE-159","1 55101U 23001CW  24064.42717167  .00054826  00000-0  14979-2 0  9996","2 55101  97.4360 129.5967 0012034 160.6292 199.5412 15.37140505 64987","2023-001CW","55101","6832.707","93.680","462.794","446.350","0"
"GENERATED VIA SPACETRACK.ORG API","18 SPCS","55101","SPACEBEE-159","PAYLOAD","U","23001CW","2024-03-04 14:56:20","980320","15.3715519","0.0012004","97.4358","129.7944","160.2084","199.9629","0","999","6501","0.00098404","0.00035919","0","4208577","0 SPACEBEE-159","1 55101U 23001CW  24064.62246505  .00035919  00000-0  98404-3 0  9999","2 55101  97.4358 129.7944 0012004 160.2084 199.9629 15.37155190 65018","2023-001CW","55101","6832.663","93.680","462.730","446.327","0"
